[
    {
        "Altitude(m)": 559716.1194623818,
        "Argument of Periapsis(deg)": 0.006622991110713501,
        "Eccentricity": 0.0,
        "Inclination(deg)": 53.0,
        "Latitude(deg)": -22.4204007574756,
        "Longitude(deg)": 122.23845844132724,
        "Mean Anomaly(deg)": 208.2733928675775,
        "RAAN(deg)": 24.99014336852802,
        "Satellite Name": "Starlink Shell 1 122",
        "Satellite Number": 122,
        "Semi-Major Axis(m)": 6931778.249405717,
        "Time(s)": 190
    },
    {
        "Altitude(m)": 559880.7489702349,
        "Argument of Periapsis(deg)": 0.0069715695902247375,
        "Eccentricity": 0.0,
        "Inclination(deg)": 53.0,
        "Latitude(deg)": -22.89773602345727,
        "Longitude(deg)": 122.63844656685667,
        "Mean Anomaly(deg)": 208.9002240711343,
        "RAAN(deg)": 24.989624598450543,
        "Satellite Name": "Starlink Shell 1 122",
        "Satellite Number": 122,
        "Semi-Major Axis(m)": 6931778.249405717,
        "Time(s)": 200
    },
    {
        "Altitude(m)": 560046.4995969378,
        "Argument of Periapsis(deg)": 0.007320148069735974,
        "Eccentricity": 0.0,
        "Inclination(deg)": 53.0,
        "Latitude(deg)": -23.373794826064003,
        "Longitude(deg)": 123.04151315436731,
        "Mean Anomaly(deg)": 209.527055274691,
        "RAAN(deg)": 24.98910582837307,
        "Satellite Name": "Starlink Shell 1 122",
        "Satellite Number": 122,
        "Semi-Major Axis(m)": 6931778.249405717,
        "Time(s)": 210
    },
    {
        "Altitude(m)": 560213.3121246524,
        "Argument of Periapsis(deg)": 0.007668726549247212,
        "Eccentricity": 0.0,
        "Inclination(deg)": 53.0,
        "Latitude(deg)": -23.848539438358078,
        "Longitude(deg)": 123.44774361793759,
        "Mean Anomaly(deg)": 210.1538864782477,
        "RAAN(deg)": 24.988587058295597,
        "Satellite Name": "Starlink Shell 1 122",
        "Satellite Number": 122,
        "Semi-Major Axis(m)": 6931778.249405717,
        "Time(s)": 220
    },
    {
        "Altitude(m)": 560381.1267130125,
        "Argument of Periapsis(deg)": 0.00801730502875845,
        "Eccentricity": 0.0,
        "Inclination(deg)": 53.0,
        "Latitude(deg)": -24.321931384294047,
        "Longitude(deg)": 123.8572245632186,
        "Mean Anomaly(deg)": 210.78071768180445,
        "RAAN(deg)": 24.988068288218127,
        "Satellite Name": "Starlink Shell 1 122",
        "Satellite Number": 122,
        "Semi-Major Axis(m)": 6931778.249405717,
        "Time(s)": 230
    },
    {
        "Altitude(m)": 560549.8829259124,
        "Argument of Periapsis(deg)": 0.008365883508269684,
        "Eccentricity": 0.0,
        "Inclination(deg)": 53.0,
        "Latitude(deg)": -24.79393141395632,
        "Longitude(deg)": 124.27004431004696,
        "Mean Anomaly(deg)": 211.4075488853611,
        "RAAN(deg)": 24.987549518140654,
        "Satellite Name": "Starlink Shell 1 122",
        "Satellite Number": 122,
        "Semi-Major Axis(m)": 6931778.249405717,
        "Time(s)": 240
    },
    {
        "Altitude(m)": 560719.5197586073,
        "Argument of Periapsis(deg)": 0.008714461987780921,
        "Eccentricity": 0.0,
        "Inclination(deg)": 53.0,
        "Latitude(deg)": -25.26449947827827,
        "Longitude(deg)": 124.68629190093758,
        "Mean Anomaly(deg)": 212.03438008891786,
        "RAAN(deg)": 24.987030748063177,
        "Satellite Name": "Starlink Shell 1 122",
        "Satellite Number": 122,
        "Semi-Major Axis(m)": 6931778.249405717,
        "Time(s)": 250
    },
    {
        "Altitude(m)": 560889.9756650307,
        "Argument of Periapsis(deg)": 0.009063040467292158,
        "Eccentricity": 0.0,
        "Inclination(deg)": 53.0,
        "Latitude(deg)": -25.73359470324252,
        "Longitude(deg)": 125.10605762106438,
        "Mean Anomaly(deg)": 212.6612112924746,
        "RAAN(deg)": 24.986511977985707,
        "Satellite Name": "Starlink Shell 1 122",
        "Satellite Number": 122,
        "Semi-Major Axis(m)": 6931778.249405717,
        "Time(s)": 260
    },
    {
        "Altitude(m)": 561061.1885853949,
        "Argument of Periapsis(deg)": 0.009411618946803396,
        "Eccentricity": 0.0,
        "Inclination(deg)": 53.0,
        "Latitude(deg)": -26.20117536356281,
        "Longitude(deg)": 125.5294335167148,
        "Mean Anomaly(deg)": 213.28804249603127,
        "RAAN(deg)": 24.985993207908237,
        "Satellite Name": "Starlink Shell 1 122",
        "Satellite Number": 122,
        "Semi-Major Axis(m)": 6931778.249405717,
        "Time(s)": 270
    },
    {
        "Altitude(m)": 561233.0959740086,
        "Argument of Periapsis(deg)": 0.009760197426314633,
        "Eccentricity": 0.0,
        "Inclination(deg)": 53.0,
        "Latitude(deg)": -26.667198855848923,
        "Longitude(deg)": 125.95651239919168,
        "Mean Anomaly(deg)": 213.91487369958804,
        "RAAN(deg)": 24.98547443783076,
        "Satellite Name": "Starlink Shell 1 122",
        "Satellite Number": 122,
        "Semi-Major Axis(m)": 6931778.249405717,
        "Time(s)": 280
    },
    {
        "Altitude(m)": 561405.6348273379,
        "Argument of Periapsis(deg)": 0.01010877590582587,
        "Eccentricity": 0.0,
        "Inclination(deg)": 53.0,
        "Latitude(deg)": -27.13162167125872,
        "Longitude(deg)": 126.38738835973794,
        "Mean Anomaly(deg)": 214.54170490314473,
        "RAAN(deg)": 24.98495566775329,
        "Satellite Name": "Starlink Shell 1 122",
        "Satellite Number": 122,
        "Semi-Major Axis(m)": 6931778.249405717,
        "Time(s)": 290
    },
    {
        "Altitude(m)": 561578.7417122694,
        "Argument of Periapsis(deg)": 0.010457354385337106,
        "Eccentricity": 0.0,
        "Inclination(deg)": 53.0,
        "Latitude(deg)": -27.594399367645813,
        "Longitude(deg)": 126.82215728243708,
        "Mean Anomaly(deg)": 215.16853610670145,
        "RAAN(deg)": 24.984436897675817,
        "Satellite Name": "Starlink Shell 1 122",
        "Satellite Number": 122,
        "Semi-Major Axis(m)": 6931778.249405717,
        "Time(s)": 300
    },
    {
        "Altitude(m)": 561752.3527945568,
        "Argument of Periapsis(deg)": 0.010805932864848343,
        "Eccentricity": 0.0,
        "Inclination(deg)": 53.0,
        "Latitude(deg)": -28.055486541208122,
        "Longitude(deg)": 127.26091584202479,
        "Mean Anomaly(deg)": 215.79536731025817,
        "RAAN(deg)": 24.983918127598344,
        "Satellite Name": "Starlink Shell 1 122",
        "Satellite Number": 122,
        "Semi-Major Axis(m)": 6931778.249405717,
        "Time(s)": 310
    },
    {
        "Altitude(m)": 561926.4038674617,
        "Argument of Periapsis(deg)": 0.01115451134435958,
        "Eccentricity": 0.0,
        "Inclination(deg)": 53.0,
        "Latitude(deg)": -28.514836797651746,
        "Longitude(deg)": 127.7037620121521,
        "Mean Anomaly(deg)": 216.42219851381486,
        "RAAN(deg)": 24.983399357520874,
        "Satellite Name": "Starlink Shell 1 122",
        "Satellite Number": 122,
        "Semi-Major Axis(m)": 6931778.249405717,
        "Time(s)": 320
    },
    {
        "Altitude(m)": 562100.8303805657,
        "Argument of Periapsis(deg)": 0.011503089823870818,
        "Eccentricity": 0.0,
        "Inclination(deg)": 53.0,
        "Latitude(deg)": -28.9724027228834,
        "Longitude(deg)": 128.15079557100972,
        "Mean Anomaly(deg)": 217.04902971737158,
        "RAAN(deg)": 24.982880587443397,
        "Satellite Name": "Starlink Shell 1 122",
        "Satellite Number": 122,
        "Semi-Major Axis(m)": 6931778.249405717,
        "Time(s)": 330
    },
    {
        "Altitude(m)": 562275.567468714,
        "Argument of Periapsis(deg)": 0.011851668303382053,
        "Eccentricity": 0.0,
        "Inclination(deg)": 53.0,
        "Latitude(deg)": -29.42813585324713,
        "Longitude(deg)": 128.60211709120938,
        "Mean Anomaly(deg)": 217.67586092092824,
        "RAAN(deg)": 24.982361817365927,
        "Satellite Name": "Starlink Shell 1 122",
        "Satellite Number": 122,
        "Semi-Major Axis(m)": 6931778.249405717,
        "Time(s)": 340
    },
    {
        "Altitude(m)": 562450.5499811246,
        "Argument of Periapsis(deg)": 0.012200246782893292,
        "Eccentricity": 0.0,
        "Inclination(deg)": 53.0,
        "Latitude(deg)": -29.88198664532908,
        "Longitude(deg)": 129.05782843941827,
        "Mean Anomaly(deg)": 218.30269212448505,
        "RAAN(deg)": 24.98184304728845,
        "Satellite Name": "Starlink Shell 1 122",
        "Satellite Number": 122,
        "Semi-Major Axis(m)": 6931778.249405717,
        "Time(s)": 350
    },
    {
        "Altitude(m)": 562625.7125106093,
        "Argument of Periapsis(deg)": 0.012548825262404526,
        "Eccentricity": 0.0,
        "Inclination(deg)": 53.0,
        "Latitude(deg)": -30.333904445352623,
        "Longitude(deg)": 129.51803327260933,
        "Mean Anomaly(deg)": 218.92952332804177,
        "RAAN(deg)": 24.98132427721098,
        "Satellite Name": "Starlink Shell 1 122",
        "Satellite Number": 122,
        "Semi-Major Axis(m)": 6931778.249405717,
        "Time(s)": 360
    },
    {
        "Altitude(m)": 562800.9894228919,
        "Argument of Periapsis(deg)": 0.012897403741915765,
        "Eccentricity": 0.0,
        "Inclination(deg)": 53.0,
        "Latitude(deg)": -30.783837458192412,
        "Longitude(deg)": 129.9828360177774,
        "Mean Anomaly(deg)": 219.55635453159837,
        "RAAN(deg)": 24.980805507133503,
        "Satellite Name": "Starlink Shell 1 122",
        "Satellite Number": 122,
        "Semi-Major Axis(m)": 6931778.249405717,
        "Time(s)": 370
    }
]